0 COSMOS 2251 DEB
1 35061U 93036AHQ 13280.86997867  .00001507  00000-0  39524-3 0  4376
2 35061 074.0523 081.0871 0055452 248.7972 182.6393 14.49229509239688
0 COSMOS 2251 DEB
1 35061U 93036AHQ 13283.15611293  .00001707  00000-0  44656-3 0  4382
2 35061 074.0524 076.8031 0055456 244.0635 229.8207 14.49241967240017
0 COSMOS 2251 DEB
1 35061U 93036AHQ 13285.41818431  .00001616  00000-0  42309-3 0  4399
2 35061 074.0529 072.5642 0055411 239.3866 151.5398 14.49250068240336
0 COSMOS 2251 DEB
1 35061U 93036AHQ 13288.82487562  .00002542  00000-0  66105-3 0  4405
2 35061 074.0538 066.1806 0055222 232.3260 285.1484 14.49266305240834
0 COSMOS 2251 DEB
1 35061U 93036AHQ 13291.35452299  .00002466  00000-0  64136-3 0  4414
2 35061 074.0541 061.4407 0055144 227.0733 163.1356 14.49278072241199
0 COSMOS 2251 DEB
1 35061U 93036AHQ 13294.67403043  .00003058  00000-0  79309-3 0  4422
2 35061 074.0542 055.2208 0055004 220.1833 202.2530 14.49295607241686
